[
    {
        "Altitude(m)": 617719.7197714408,
        "Argument of Periapsis(deg)": 0.0,
        "Eccentricity": 0.0,
        "Inclination(deg)": 60.0,
        "Latitude(deg)": -41.1025015738087,
        "Longitude(deg)": 115.09460292167728,
        "Mean Anomaly(deg)": 229.09090000000006,
        "RAAN(deg)": 5.0,
        "Satellite Name": "Test1 36",
        "Satellite Number": 36,
        "Semi-Major Axis(m)": 6980739.136638005,
        "Time(s)": 0
    },
    {
        "Altitude(m)": 617911.2557364133,
        "Argument of Periapsis(deg)": 0.00010418945913296404,
        "Eccentricity": 0.0,
        "Inclination(deg)": 60.0,
        "Latitude(deg)": -41.565694016568344,
        "Longitude(deg)": 115.59900767305379,
        "Mean Anomaly(deg)": 229.71100614546188,
        "RAAN(deg)": 4.999579950860257,
        "Satellite Name": "Test1 36",
        "Satellite Number": 36,
        "Semi-Major Axis(m)": 6980739.136638005,
        "Time(s)": 10
    }
]